{"type": "FeatureCollection", "features": [ {"type": "Feature", "properties": {"norad_id": 66836, "name": "STARLINK-35838", "group": "last-30-days", "lat": -7.420785212535806, "lon": 11.024797563774973, "alt_km": 371.7263372230045, "timestamp": "2025-12-16T10:53:44.206608+00:00", "meta": {"OBJECT_NAME": "STARLINK-35838", "OBJECT_ID": "2025-280R", "EPOCH": "2025-12-15T22:00:01.999584", "MEAN_MOTION": 15.6889667, "ECCENTRICITY": 0.00038228, "INCLINATION": 69.9978, "RA_OF_ASC_NODE": 189.8103, "ARG_OF_PERICENTER": 274.5703, "MEAN_ANOMALY": 121.7287, "EPHEMERIS_TYPE": 0, "CLASSIFICATION_TYPE": "U", "NORAD_CAT_ID": 66836, "ELEMENT_SET_NO": 999, "REV_AT_EPOCH": 340, "BSTAR": -0.019063535, "MEAN_MOTION_DOT": -0.01946614, "MEAN_MOTION_DDOT": 0}, "tle": {"line1": "1 66836U 25280R   25349.91668981 -.01946614  00000+0 -19064-1 0  9990", "line2": "2 66836  69.9978 189.8103 0003822 274.5703 121.7287 15.68896670  3403"}}, "geometry": {"type": "Point", "coordinates": [11.024797563774973, -7.420785212535806]}}, {"type": "Feature", "properties": {"norad_id": 66837, "name": "STARLINK-35729", "group": "last-30-days", "lat": -9.23030388263636, "lon": 11.696292540101497, "alt_km": 371.70696409790344, "timestamp": "2025-12-16T10:53:44.206618+00:00", "meta": {"OBJECT_NAME": "STARLINK-35729", "OBJECT_ID": "2025-280S", "EPOCH": "2025-12-15T22:00:01.999584", "MEAN_MOTION": 15.68880391, "ECCENTRICITY": 0.0003885, "INCLINATION": 69.9978, "RA_OF_ASC_NODE": 189.8075, "ARG_OF_PERICENTER": 272.9629, "MEAN_ANOMALY": 125.2579, "EPHEMERIS_TYPE": 0, "CLASSIFICATION_TYPE": "U", "NORAD_CAT_ID": 66837, "ELEMENT_SET_NO": 999, "REV_AT_EPOCH": 340, "BSTAR": -0.018729482, "MEAN_MOTION_DOT": -0.01915252, "MEAN_MOTION_DDOT": 0}, "tle": {"line1": "1 66837U 25280S   25349.91668981 -.01915252  00000+0 -18729-1 0  9992", "line2": "2 66837  69.9978 189.8075 0003885 272.9629 125.2579 15.68880391  3406"}}, "geometry": {"type": "Point", "coordinates": [11.696292540101497, -9.23030388263636]}}, {"type": "Feature", "properties": {"norad_id": 66838, "name": "STARLINK-35886", "group": "last-30-days", "lat": -12.810114227469441, "lon": 13.0488276388806, "alt_km": 372.1755174916698, "timestamp": "2025-12-16T10:53:44.206646+00:00", "meta": {"OBJECT_NAME": "STARLINK-35886", "OBJECT_ID": "2025-280T", "EPOCH": "2025-12-15T22:00:01.999584", "MEAN_MOTION": 15.68892502, "ECCENTRICITY": 0.00036106, "INCLINATION": 69.998, "RA_OF_ASC_NODE": 189.8026, "ARG_OF_PERICENTER": 276.0433, "MEAN_ANOMALY": 126.0084, "EPHEMERIS_TYPE": 0, "CLASSIFICATION_TYPE": "U", "NORAD_CAT_ID": 66838, "ELEMENT_SET_NO": 999, "REV_AT_EPOCH": 340, "BSTAR": -0.019051211, "MEAN_MOTION_DOT": -0.01944991, "MEAN_MOTION_DDOT": 0}, "tle": {"line1": "1 66838U 25280T   25349.91668981 -.01944991  00000+0 -19051-1 0  9994", "line2": "2 66838  69.9980 189.8026 0003610 276.0433 126.0084 15.68892502  3407"}}, "geometry": {"type": "Point", "coordinates": [13.0488276388806, -12.810114227469441]}}, {"type": "Feature", "properties": {"norad_id": 66839, "name": "STARLINK-35717", "group": "last-30-days", "lat": -11.025772405639973, "lon": 12.370013231623586, "alt_km": 371.84365443034585, "timestamp": "2025-12-16T10:53:44.206663+00:00", "meta": {"OBJECT_NAME": "STARLINK-35717", "OBJECT_ID": "2025-280U", "EPOCH": "2025-12-15T22:00:01.999584", "MEAN_MOTION": 15.68878354, "ECCENTRICITY": 0.00038594, "INCLINATION": 69.9978, "RA_OF_ASC_NODE": 189.8048, "ARG_OF_PERICENTER": 273.3526, "MEAN_ANOMALY": 126.7848, "EPHEMERIS_TYPE": 0, "CLASSIFICATION_TYPE": "U", "NORAD_CAT_ID": 66839, "ELEMENT_SET_NO": 999, "REV_AT_EPOCH": 340, "BSTAR": -0.018710712, "MEAN_MOTION_DOT": -0.01913379, "MEAN_MOTION_DDOT": 0}, "tle": {"line1": "1 66839U 25280U   25349.91668981 -.01913379  00000+0 -18711-1 0  9993", "line2": "2 66839  69.9978 189.8048 0003859 273.3526 126.7848 15.68878354  3401"}}, "geometry": {"type": "Point", "coordinates": [12.370013231623586, -11.025772405639973]}}, {"type": "Feature", "properties": {"norad_id": 66840, "name": "STARLINK-35837", "group": "last-30-days", "lat": -14.611672201691269, "lon": 13.745108104492955, "alt_km": 372.1091083537103, "timestamp": "2025-12-16T10:53:44.206674+00:00", "meta": {"OBJECT_NAME": "STARLINK-35837", "OBJECT_ID": "2025-280V", "EPOCH": "2025-12-15T22:00:01.999584", "MEAN_MOTION": 15.68888811, "ECCENTRICITY": 0.00037319, "INCLINATION": 69.9983, "RA_OF_ASC_NODE": 189.8008, "ARG_OF_PERICENTER": 273.2684, "MEAN_ANOMALY": 130.7004, "EPHEMERIS_TYPE": 0, "CLASSIFICATION_TYPE": "U", "NORAD_CAT_ID": 66840, "ELEMENT_SET_NO": 999, "REV_AT_EPOCH": 340, "BSTAR": -0.018905956, "MEAN_MOTION_DOT": -0.019317, "MEAN_MOTION_DDOT": 0}, "tle": {"line1": "1 66840U 25280V   25349.91668981 -.01931700  00000+0 -18906-1 0  9999", "line2": "2 66840  69.9983 189.8008 0003731 273.2684 130.7004 15.68888811  3406"}}, "geometry": {"type": "Point", "coordinates": [13.745108104492955, -14.611672201691269]}}, {"type": "Feature", "properties": {"norad_id": 66841, "name": "STARLINK-35715", "group": "last-30-days", "lat": -16.39689302137817, "lon": 14.44688734826962, "alt_km": 372.39095519295734, "timestamp": "2025-12-16T10:53:44.206689+00:00", "meta": {"OBJECT_NAME": "STARLINK-35715", "OBJECT_ID": "2025-280W", "EPOCH": "2025-12-15T22:00:01.999584", "MEAN_MOTION": 15.68892043, "ECCENTRICITY": 0.00038151, "INCLINATION": 69.9981, "RA_OF_ASC_NODE": 189.7985, "ARG_OF_PERICENTER": 277.2996, "MEAN_ANOMALY": 128.5847, "EPHEMERIS_TYPE": 0, "CLASSIFICATION_TYPE": "U", "NORAD_CAT_ID": 66841, "ELEMENT_SET_NO": 999, "REV_AT_EPOCH": 340, "BSTAR": -0.018991439, "MEAN_MOTION_DOT": -0.01939753, "MEAN_MOTION_DDOT": 0}, "tle": {"line1": "1 66841U 25280W   25349.91668981 -.01939753  00000+0 -18991-1 0  9990", "line2": "2 66841  69.9981 189.7985 0003815 277.2996 128.5847 15.68892043  3403"}}, "geometry": {"type": "Point", "coordinates": [14.44688734826962, -16.39689302137817]}}, {"type": "Feature", "properties": {"norad_id": 66842, "name": "STARLINK-35769", "group": "last-30-days", "lat": -18.185013912444095, "lon": 15.163390940919454, "alt_km": 372.5483152695515, "timestamp": "2025-12-16T10:53:44.206699+00:00", "meta": {"OBJECT_NAME": "STARLINK-35769", "OBJECT_ID": "2025-280X", "EPOCH": "2025-12-15T22:00:01.999584", "MEAN_MOTION": 15.68897151, "ECCENTRICITY": 0.00036625, "INCLINATION": 69.9981, "RA_OF_ASC_NODE": 189.7958, "ARG_OF_PERICENTER": 277.9845, "MEAN_ANOMALY": 129.8145, "EPHEMERIS_TYPE": 0, "CLASSIFICATION_TYPE": "U", "NORAD_CAT_ID": 66842, "ELEMENT_SET_NO": 999, "REV_AT_EPOCH": 340, "BSTAR": -0.019078492, "MEAN_MOTION_DOT": -0.0194784, "MEAN_MOTION_DDOT": 0}, "tle": {"line1": "1 66842U 25280X   25349.91668981 -.01947840  00000+0 -19078-1 0  9994", "line2": "2 66842  69.9981 189.7958 0003662 277.9845 129.8145 15.68897151  3404"}}, "geometry": {"type": "Point", "coordinates": [15.163390940919454, -18.185013912444095]}}, {"type": "Feature", "properties": {"norad_id": 66843, "name": "STARLINK-35997", "group": "last-30-days", "lat": -21.753251617195836, "lon": 16.644766851550713, "alt_km": 372.74250939508147, "timestamp": "2025-12-16T10:53:44.206709+00:00", "meta": {"OBJECT_NAME": "STARLINK-35997", "OBJECT_ID": "2025-280Y", "EPOCH": "2025-12-15T22:00:01.999584", "MEAN_MOTION": 15.68895425, "ECCENTRICITY": 0.00036362, "INCLINATION": 69.9972, "RA_OF_ASC_NODE": 189.7916, "ARG_OF_PERICENTER": 278.6685, "MEAN_ANOMALY": 132.9646, "EPHEMERIS_TYPE": 0, "CLASSIFICATION_TYPE": "U", "NORAD_CAT_ID": 66843, "ELEMENT_SET_NO": 999, "REV_AT_EPOCH": 340, "BSTAR": -0.01905882, "MEAN_MOTION_DOT": -0.01945914, "MEAN_MOTION_DDOT": 0}, "tle": {"line1": "1 66843U 25280Y   25349.91668981 -.01945914  00000+0 -19059-1 0  9994", "line2": "2 66843  69.9972 189.7916 0003636 278.6685 132.9646 15.68895425  3403"}}, "geometry": {"type": "Point", "coordinates": [16.644766851550713, -21.753251617195836]}}, {"type": "Feature", "properties": {"norad_id": 66844, "name": "STARLINK-36073", "group": "last-30-days", "lat": -19.972206710667113, "lon": 15.897168233669978, "alt_km": 372.6637560552026, "timestamp": "2025-12-16T10:53:44.206724+00:00", "meta": {"OBJECT_NAME": "STARLINK-36073", "OBJECT_ID": "2025-280Z", "EPOCH": "2025-12-15T22:00:01.999584", "MEAN_MOTION": 15.68894762, "ECCENTRICITY": 0.00036528, "INCLINATION": 69.998, "RA_OF_ASC_NODE": 189.7947, "ARG_OF_PERICENTER": 278.9108, "MEAN_ANOMALY": 130.8051, "EPHEMERIS_TYPE": 0, "CLASSIFICATION_TYPE": "U", "NORAD_CAT_ID": 66844, "ELEMENT_SET_NO": 999, "REV_AT_EPOCH": 340, "BSTAR": -0.019027118, "MEAN_MOTION_DOT": -0.01943015, "MEAN_MOTION_DDOT": 0}, "tle": {"line1": "1 66844U 25280Z   25349.91668981 -.01943015  00000+0 -19027-1 0  9990", "line2": "2 66844  69.9980 189.7947 0003652 278.9108 130.8051 15.68894762  3408"}}, "geometry": {"type": "Point", "coordinates": [15.897168233669978, -19.972206710667113]}}, {"type": "Feature", "properties": {"norad_id": 66845, "name": "STARLINK-36068", "group": "last-30-days", "lat": -27.08680890563742, "lon": 19.016378000028038, "alt_km": 372.7402170512223, "timestamp": "2025-12-16T10:53:44.206740+00:00", "meta": {"OBJECT_NAME": "STARLINK-36068", "OBJECT_ID": "2025-280AA", "EPOCH": "2025-12-15T22:00:01.999584", "MEAN_MOTION": 15.68881449, "ECCENTRICITY": 0.00036552, "INCLINATION": 69.9979, "RA_OF_ASC_NODE": 189.7842, "ARG_OF_PERICENTER": 275.3714, "MEAN_ANOMALY": 142.0153, "EPHEMERIS_TYPE": 0, "CLASSIFICATION_TYPE": "U", "NORAD_CAT_ID": 66845, "ELEMENT_SET_NO": 999, "REV_AT_EPOCH": 340, "BSTAR": -0.018781451, "MEAN_MOTION_DOT": -0.01919819, "MEAN_MOTION_DDOT": 0}, "tle": {"line1": "1 66845U 25280AA  25349.91668981 -.01919819  00000+0 -18781-1 0  9992", "line2": "2 66845  69.9979 189.7842 0003655 275.3714 142.0153 15.68881449  3404"}}, "geometry": {"type": "Point", "coordinates": [19.016378000028038, -27.08680890563742]}}]}